{"type": "FeatureCollection", "features": [ {"type": "Feature", "properties": {"norad_id": 66547, "name": "SHIJIAN-30C", "group": "last-30-days", "lat": 51.3716617718194, "lon": 99.58833431667443, "alt_km": 517.4654179237195, "timestamp": "2025-12-02T19:35:49.343842+00:00", "meta": {"OBJECT_NAME": "SHIJIAN-30C", "OBJECT_ID": "2025-266C", "EPOCH": "2025-12-02T12:53:51.456768", "MEAN_MOTION": 15.15406798, "ECCENTRICITY": 0.0011331, "INCLINATION": 51.7989, "RA_OF_ASC_NODE": 20.6706, "ARG_OF_PERICENTER": 315.1457, "MEAN_ANOMALY": 44.8603, "EPHEMERIS_TYPE": 0, "CLASSIFICATION_TYPE": "U", "NORAD_CAT_ID": 66547, "ELEMENT_SET_NO": 999, "REV_AT_EPOCH": 203, "BSTAR": 0.00079069, "MEAN_MOTION_DOT": 0.00014866, "MEAN_MOTION_DDOT": 0}, "tle": {"line1": "1 66547U 25266C   25336.53740112  .00014866  00000+0  79069-3 0  9999", "line2": "2 66547  51.7989  20.6706 0011331 315.1457  44.8603 15.15406798  2031"}}, "geometry": {"type": "Point", "coordinates": [99.58833431667443, 51.3716617718194]}}, {"type": "Feature", "properties": {"norad_id": 66548, "name": "CZ-2C R/B", "group": "last-30-days", "lat": 47.166818501399064, "lon": 75.86012523033061, "alt_km": 450.34231251694837, "timestamp": "2025-12-02T19:35:49.343852+00:00", "meta": {"OBJECT_NAME": "CZ-2C R/B", "OBJECT_ID": "2025-266D", "EPOCH": "2025-12-02T11:27:32.023872", "MEAN_MOTION": 15.29821049, "ECCENTRICITY": 0.0084839, "INCLINATION": 52.055, "RA_OF_ASC_NODE": 20.1598, "ARG_OF_PERICENTER": 138.1426, "MEAN_ANOMALY": 222.6089, "EPHEMERIS_TYPE": 0, "CLASSIFICATION_TYPE": "U", "NORAD_CAT_ID": 66548, "ELEMENT_SET_NO": 999, "REV_AT_EPOCH": 204, "BSTAR": 0.00047166, "MEAN_MOTION_DOT": 0.0001505, "MEAN_MOTION_DDOT": 0}, "tle": {"line1": "1 66548U 25266D   25336.47745398  .00015050  00000+0  47166-3 0  9993", "line2": "2 66548  52.0550  20.1598 0084839 138.1426 222.6089 15.29821049  2046"}}, "geometry": {"type": "Point", "coordinates": [75.86012523033061, 47.166818501399064]}}, {"type": "Feature", "properties": {"norad_id": 66549, "name": "SHIJIAN-28", "group": "last-30-days", "lat": -6.735966769595794, "lon": -112.66550249339085, "alt_km": 25104.67139000512, "timestamp": "2025-12-02T19:35:49.343864+00:00", "meta": {"OBJECT_NAME": "SHIJIAN-28", "OBJECT_ID": "2025-277A", "EPOCH": "2025-11-30T18:06:43.124256", "MEAN_MOTION": 2.28019775, "ECCENTRICITY": 0.7300519, "INCLINATION": 14.4344, "RA_OF_ASC_NODE": 275.4056, "ARG_OF_PERICENTER": 179.5026, "MEAN_ANOMALY": 182.358, "EPHEMERIS_TYPE": 0, "CLASSIFICATION_TYPE": "U", "NORAD_CAT_ID": 66549, "ELEMENT_SET_NO": 999, "REV_AT_EPOCH": 4, "BSTAR": 0.00062085, "MEAN_MOTION_DOT": 6.315e-05, "MEAN_MOTION_DDOT": 0}, "tle": {"line1": "1 66549U 25277A   25334.75466579  .00006315  00000+0  62085-3 0  9997", "line2": "2 66549  14.4344 275.4056 7300519 179.5026 182.3580  2.28019775    48"}}, "geometry": {"type": "Point", "coordinates": [-112.66550249339085, -6.735966769595794]}}, {"type": "Feature", "properties": {"norad_id": 66550, "name": "CZ-7A R/B", "group": "last-30-days", "lat": -0.3441770342458854, "lon": -86.69088909335736, "alt_km": 34194.22690674923, "timestamp": "2025-12-02T19:35:49.343876+00:00", "meta": {"OBJECT_NAME": "CZ-7A R/B", "OBJECT_ID": "2025-277B", "EPOCH": "2025-12-01T03:57:29.558880", "MEAN_MOTION": 2.40161271, "ECCENTRICITY": 0.72362879, "INCLINATION": 14.4278, "RA_OF_ASC_NODE": 275.378, "ARG_OF_PERICENTER": 178.5774, "MEAN_ANOMALY": 186.2906, "EPHEMERIS_TYPE": 0, "CLASSIFICATION_TYPE": "U", "NORAD_CAT_ID": 66550, "ELEMENT_SET_NO": 999, "REV_AT_EPOCH": 5, "BSTAR": 4.4603974e-05, "MEAN_MOTION_DOT": 0.00016399, "MEAN_MOTION_DDOT": -7.1945e-08}, "tle": {"line1": "1 66550U 25277B   25335.16492545  .00016399 -71945-7  44604-4 0  9993", "line2": "2 66550  14.4278 275.3780 7236287 178.5774 186.2906  2.40161271    57"}}, "geometry": {"type": "Point", "coordinates": [-86.69088909335736, -0.3441770342458854]}}, {"type": "Feature", "properties": {"norad_id": 66554, "name": "GLOBAL-33", "group": "last-30-days", "lat": 2.131569605995804, "lon": 116.63414534541228, "alt_km": 467.8342567412956, "timestamp": "2025-12-02T19:35:49.343887+00:00", "meta": {"OBJECT_NAME": "GLOBAL-33", "OBJECT_ID": "2025-267A", "EPOCH": "2025-12-01T20:06:06.812640", "MEAN_MOTION": 15.31226532, "ECCENTRICITY": 0.00056758, "INCLINATION": 42.0184, "RA_OF_ASC_NODE": 119.9156, "ARG_OF_PERICENTER": 335.5571, "MEAN_ANOMALY": 24.4997, "EPHEMERIS_TYPE": 0, "CLASSIFICATION_TYPE": "U", "NORAD_CAT_ID": 66554, "ELEMENT_SET_NO": 999, "REV_AT_EPOCH": 173, "BSTAR": 0.00042244628, "MEAN_MOTION_DOT": 0.00012793, "MEAN_MOTION_DDOT": 0}, "tle": {"line1": "1 66554U 25267A   25335.83757885  .00012793  00000+0  42245-3 0  9998", "line2": "2 66554  42.0184 119.9156 0005675 335.5571  24.4997 15.31226532  1737"}}, "geometry": {"type": "Point", "coordinates": [116.63414534541228, 2.131569605995804]}}, {"type": "Feature", "properties": {"norad_id": 66555, "name": "ELECTRON KICK STAGE R/B", "group": "last-30-days", "lat": 21.45627803639076, "lon": 140.07898844844485, "alt_km": 462.91345304838524, "timestamp": "2025-12-02T19:35:49.343899+00:00", "meta": {"OBJECT_NAME": "ELECTRON KICK STAGE R/B", "OBJECT_ID": "2025-267B", "EPOCH": "2025-12-02T02:14:34.409184", "MEAN_MOTION": 15.32043166, "ECCENTRICITY": 0.00074806, "INCLINATION": 42.0172, "RA_OF_ASC_NODE": 118.3743, "ARG_OF_PERICENTER": 336.8276, "MEAN_ANOMALY": 23.2223, "EPHEMERIS_TYPE": 0, "CLASSIFICATION_TYPE": "U", "NORAD_CAT_ID": 66555, "ELEMENT_SET_NO": 999, "REV_AT_EPOCH": 177, "BSTAR": 0.00085113496, "MEAN_MOTION_DOT": 0.00026769, "MEAN_MOTION_DDOT": 0}, "tle": {"line1": "1 66555U 25267B   25336.09345381  .00026769  00000+0  85113-3 0  9991", "line2": "2 66555  42.0172 118.3743 0007480 336.8276  23.2223 15.32043166  1776"}}, "geometry": {"type": "Point", "coordinates": [140.07898844844485, 21.45627803639076]}}, {"type": "Feature", "properties": {"norad_id": 66557, "name": "STARLINK-35699", "group": "last-30-days", "lat": 34.74959497314739, "lon": -48.11156907945178, "alt_km": 335.94079231036085, "timestamp": "2025-12-02T19:35:49.343914+00:00", "meta": {"OBJECT_NAME": "STARLINK-35699", "OBJECT_ID": "2025-268A", "EPOCH": "2025-12-02T12:00:05.998752", "MEAN_MOTION": 15.77523231, "ECCENTRICITY": 0.000162, "INCLINATION": 42.9972, "RA_OF_ASC_NODE": 181.9337, "ARG_OF_PERICENTER": 268.8321, "MEAN_ANOMALY": 215.5153, "EPHEMERIS_TYPE": 0, "CLASSIFICATION_TYPE": "U", "NORAD_CAT_ID": 66557, "ELEMENT_SET_NO": 999, "REV_AT_EPOCH": 302, "BSTAR": -0.0098568, "MEAN_MOTION_DOT": -0.01489267, "MEAN_MOTION_DDOT": 0}, "tle": {"line1": "1 66557U 25268A   25336.50006943 -.01489267  00000+0 -98568-2 0  9994", "line2": "2 66557  42.9972 181.9337 0001620 268.8321 215.5153 15.77523231  3028"}}, "geometry": {"type": "Point", "coordinates": [-48.11156907945178, 34.74959497314739]}}, {"type": "Feature", "properties": {"norad_id": 66558, "name": "STARLINK-35695", "group": "last-30-days", "lat": 33.844188578972364, "lon": -46.024995697709286, "alt_km": 336.13047702639506, "timestamp": "2025-12-02T19:35:49.343924+00:00", "meta": {"OBJECT_NAME": "STARLINK-35695", "OBJECT_ID": "2025-268B", "EPOCH": "2025-12-02T12:00:05.998752", "MEAN_MOTION": 15.77513495, "ECCENTRICITY": 0.0001655, "INCLINATION": 42.9974, "RA_OF_ASC_NODE": 181.929, "ARG_OF_PERICENTER": 268.4896, "MEAN_ANOMALY": 217.8227, "EPHEMERIS_TYPE": 0, "CLASSIFICATION_TYPE": "U", "NORAD_CAT_ID": 66558, "ELEMENT_SET_NO": 999, "REV_AT_EPOCH": 302, "BSTAR": -0.0099397, "MEAN_MOTION_DOT": -0.01499716, "MEAN_MOTION_DDOT": 0}, "tle": {"line1": "1 66558U 25268B   25336.50006943 -.01499716  00000+0 -99397-2 0  9996", "line2": "2 66558  42.9974 181.9290 0001655 268.4896 217.8227 15.77513495  3028"}}, "geometry": {"type": "Point", "coordinates": [-46.024995697709286, 33.844188578972364]}}, {"type": "Feature", "properties": {"norad_id": 66559, "name": "STARLINK-35419", "group": "last-30-days", "lat": 32.883412012182276, "lon": -43.940118873623724, "alt_km": 336.39570734156405, "timestamp": "2025-12-02T19:35:49.343934+00:00", "meta": {"OBJECT_NAME": "STARLINK-35419", "OBJECT_ID": "2025-268C", "EPOCH": "2025-12-02T12:00:05.998752", "MEAN_MOTION": 15.77474507, "ECCENTRICITY": 0.0001638, "INCLINATION": 42.9975, "RA_OF_ASC_NODE": 181.9234, "ARG_OF_PERICENTER": 269.927, "MEAN_ANOMALY": 218.4229, "EPHEMERIS_TYPE": 0, "CLASSIFICATION_TYPE": "U", "NORAD_CAT_ID": 66559, "ELEMENT_SET_NO": 999, "REV_AT_EPOCH": 302, "BSTAR": -0.010002, "MEAN_MOTION_DOT": -0.01505562, "MEAN_MOTION_DDOT": 0}, "tle": {"line1": "1 66559U 25268C   25336.50006943 -.01505562  00000+0 -10002-1 0  9999", "line2": "2 66559  42.9975 181.9234 0001638 269.9270 218.4229 15.77474507  3020"}}, "geometry": {"type": "Point", "coordinates": [-43.940118873623724, 32.883412012182276]}}, {"type": "Feature", "properties": {"norad_id": 66560, "name": "STARLINK-35411", "group": "last-30-days", "lat": 31.90408082395277, "lon": -41.93161857243519, "alt_km": 336.51779154492215, "timestamp": "2025-12-02T19:35:49.343944+00:00", "meta": {"OBJECT_NAME": "STARLINK-35411", "OBJECT_ID": "2025-268D", "EPOCH": "2025-12-02T12:00:05.998752", "MEAN_MOTION": 15.77450741, "ECCENTRICITY": 0.000151, "INCLINATION": 42.9974, "RA_OF_ASC_NODE": 181.9184, "ARG_OF_PERICENTER": 269.112, "MEAN_ANOMALY": 221.2252, "EPHEMERIS_TYPE": 0, "CLASSIFICATION_TYPE": "U", "NORAD_CAT_ID": 66560, "ELEMENT_SET_NO": 999, "REV_AT_EPOCH": 302, "BSTAR": -0.010022, "MEAN_MOTION_DOT": -0.01506752, "MEAN_MOTION_DDOT": 0}, "tle": {"line1": "1 66560U 25268D   25336.50006943 -.01506752  00000+0 -10022-1 0  9995", "line2": "2 66560  42.9974 181.9184 0001510 269.1120 221.2252 15.77450741  3022"}}, "geometry": {"type": "Point", "coordinates": [-41.93161857243519, 31.90408082395277]}}]}